[{"OBJECT_NAME":"COSMOS 2433 (720)","OBJECT_ID":"2007-052A","EPOCH":"2026-03-31T00:27:15.111360","MEAN_MOTION":2.13103725,"ECCENTRICITY":9.347e-5,"INCLINATION":65.6193,"RA_OF_ASC_NODE":318.5652,"ARG_OF_PERICENTER":250.3488,"MEAN_ANOMALY":109.6996,"EPHEMERIS_TYPE":0,"CLASSIFICATION_TYPE":"U","NORAD_CAT_ID":32275,"ELEMENT_SET_NO":999,"REV_AT_EPOCH":14339,"BSTAR":0,"MEAN_MOTION_DOT":-3.5e-7,"MEAN_MOTION_DDOT":0},{"OBJECT_NAME":"COSMOS 2432 (719)","OBJECT_ID":"2007-052B","EPOCH":"2026-04-05T11:40:30.740160","MEAN_MOTION":2.13103236,"ECCENTRICITY":0.00096898,"INCLINATION":65.6327,"RA_OF_ASC_NODE":318.5074,"ARG_OF_PERICENTER":336.2251,"MEAN_ANOMALY":202.4839,"EPHEMERIS_TYPE":0,"CLASSIFICATION_TYPE":"U","NORAD_CAT_ID":32276,"ELEMENT_SET_NO":999,"REV_AT_EPOCH":14353,"BSTAR":0,"MEAN_MOTION_DOT":-4.6e-7,"MEAN_MOTION_DDOT":0},{"OBJECT_NAME":"COSMOS 2434 (721)","OBJECT_ID":"2007-065A","EPOCH":"2026-04-03T10:57:57.930336","MEAN_MOTION":2.13101374,"ECCENTRICITY":0.00022557,"INCLINATION":64.3164,"RA_OF_ASC_NODE":194.435,"ARG_OF_PERICENTER":60.204,"MEAN_ANOMALY":307.5513,"EPHEMERIS_TYPE":0,"CLASSIFICATION_TYPE":"U","NORAD_CAT_ID":32393,"ELEMENT_SET_NO":999,"REV_AT_EPOCH":14218,"BSTAR":0,"MEAN_MOTION_DOT":1.4e-7,"MEAN_MOTION_DDOT":0},{"OBJECT_NAME":"COSMOS 2436 (723)","OBJECT_ID":"2007-065C","EPOCH":"2026-04-05T04:47:23.356032","MEAN_MOTION":2.13100298,"ECCENTRICITY":0.00172437,"INCLINATION":64.3249,"RA_OF_ASC_NODE":194.4474,"ARG_OF_PERICENTER":2.7284,"MEAN_ANOMALY":34.5461,"EPHEMERIS_TYPE":0,"CLASSIFICATION_TYPE":"U","NORAD_CAT_ID":32395,"ELEMENT_SET_NO":999,"REV_AT_EPOCH":14217,"BSTAR":0,"MEAN_MOTION_DOT":1.8e-7,"MEAN_MOTION_DDOT":0},{"OBJECT_NAME":"COSMOS 2456 (730)","OBJECT_ID":"2009-070A","EPOCH":"2026-04-05T07:54:58.532832","MEAN_MOTION":2.13103601,"ECCENTRICITY":0.000649,"INCLINATION":64.97,"RA_OF_ASC_NODE":73.4555,"ARG_OF_PERICENTER":311.3492,"MEAN_ANOMALY":210.9797,"EPHEMERIS_TYPE":0,"CLASSIFICATION_TYPE":"U","NORAD_CAT_ID":36111,"ELEMENT_SET_NO":999,"REV_AT_EPOCH":12687,"BSTAR":0,"MEAN_MOTION_DOT":-2.0e-8,"MEAN_MOTION_DDOT":0},{"OBJECT_NAME":"COSMOS 2457 (733)","OBJECT_ID":"2009-070B","EPOCH":"2026-04-04T00:14:51.575424","MEAN_MOTION":2.13100936,"ECCENTRICITY":0.00014904,"INCLINATION":64.9547,"RA_OF_ASC_NODE":73.3459,"ARG_OF_PERICENTER":193.6954,"MEAN_ANOMALY":164.4243,"EPHEMERIS_TYPE":0,"CLASSIFICATION_TYPE":"U","NORAD_CAT_ID":36112,"ELEMENT_SET_NO":999,"REV_AT_EPOCH":12684,"BSTAR":0,"MEAN_MOTION_DOT":-8.0e-8,"MEAN_MOTION_DDOT":0},{"OBJECT_NAME":"COSMOS 2460 (732)","OBJECT_ID":"2010-007C","EPOCH":"2026-04-04T05:59:38.658336","MEAN_MOTION":2.13106066,"ECCENTRICITY":0.00021813,"INCLINATION":65.4623,"RA_OF_ASC_NODE":316.9695,"ARG_OF_PERICENTER":49.5361,"MEAN_ANOMALY":133.5187,"EPHEMERIS_TYPE":0,"CLASSIFICATION_TYPE":"U","NORAD_CAT_ID":36402,"ELEMENT_SET_NO":999,"REV_AT_EPOCH":12515,"BSTAR":0,"MEAN_MOTION_DOT":-4.6e-7,"MEAN_MOTION_DDOT":0},{"OBJECT_NAME":"COSMOS 2476 (744)","OBJECT_ID":"2011-064A","EPOCH":"2026-04-05T05:47:39.354144","MEAN_MOTION":2.13103713,"ECCENTRICITY":0.0024787,"INCLINATION":65.2297,"RA_OF_ASC_NODE":75.3322,"ARG_OF_PERICENTER":242.3666,"MEAN_ANOMALY":120.4755,"EPHEMERIS_TYPE":0,"CLASSIFICATION_TYPE":"U","NORAD_CAT_ID":37867,"ELEMENT_SET_NO":999,"REV_AT_EPOCH":11221,"BSTAR":0,"MEAN_MOTION_DOT":1.0e-8,"MEAN_MOTION_DDOT":0},{"OBJECT_NAME":"COSMOS 2477 (745)","OBJECT_ID":"2011-064B","EPOCH":"2026-04-05T11:24:09.808128","MEAN_MOTION":2.13102893,"ECCENTRICITY":0.002187,"INCLINATION":65.2365,"RA_OF_ASC_NODE":75.4031,"ARG_OF_PERICENTER":243.9578,"MEAN_ANOMALY":118.7207,"EPHEMERIS_TYPE":0,"CLASSIFICATION_TYPE":"U","NORAD_CAT_ID":37868,"ELEMENT_SET_NO":999,"REV_AT_EPOCH":11221,"BSTAR":0,"MEAN_MOTION_DOT":3.0e-8,"MEAN_MOTION_DDOT":0},{"OBJECT_NAME":"COSMOS 2475 (743)","OBJECT_ID":"2011-064C","EPOCH":"2026-04-02T11:31:01.404768","MEAN_MOTION":2.13101572,"ECCENTRICITY":0.00278306,"INCLINATION":65.2414,"RA_OF_ASC_NODE":75.5251,"ARG_OF_PERICENTER":255.4078,"MEAN_ANOMALY":284.8639,"EPHEMERIS_TYPE":0,"CLASSIFICATION_TYPE":"U","NORAD_CAT_ID":37869,"ELEMENT_SET_NO":999,"REV_AT_EPOCH":11215,"BSTAR":0,"MEAN_MOTION_DOT":-1.0e-8,"MEAN_MOTION_DDOT":0},{"OBJECT_NAME":"COSMOS 2485 (747)","OBJECT_ID":"2013-019A","EPOCH":"2026-04-03T07:08:48.331104","MEAN_MOTION":2.13103023,"ECCENTRICITY":0.00250981,"INCLINATION":65.3788,"RA_OF_ASC_NODE":76.1162,"ARG_OF_PERICENTER":237.7826,"MEAN_ANOMALY":121.9613,"EPHEMERIS_TYPE":0,"CLASSIFICATION_TYPE":"U","NORAD_CAT_ID":39155,"ELEMENT_SET_NO":999,"REV_AT_EPOCH":10068,"BSTAR":0,"MEAN_MOTION_DOT":-3.0e-8,"MEAN_MOTION_DDOT":0},{"OBJECT_NAME":"COSMOS 2492 (754)","OBJECT_ID":"2014-012A","EPOCH":"2026-04-05T03:12:38.274048","MEAN_MOTION":2.1310324,"ECCENTRICITY":0.00122988,"INCLINATION":65.3389,"RA_OF_ASC_NODE":316.4197,"ARG_OF_PERICENTER":329.8345,"MEAN_ANOMALY":30.1426,"EPHEMERIS_TYPE":0,"CLASSIFICATION_TYPE":"U","NORAD_CAT_ID":39620,"ELEMENT_SET_NO":999,"REV_AT_EPOCH":9368,"BSTAR":0,"MEAN_MOTION_DOT":-4.5e-7,"MEAN_MOTION_DDOT":0},{"OBJECT_NAME":"COSMOS 2500 (755)","OBJECT_ID":"2014-032A","EPOCH":"2026-04-02T22:59:49.674048","MEAN_MOTION":2.13105929,"ECCENTRICITY":0.00051372,"INCLINATION":65.2756,"RA_OF_ASC_NODE":316.2469,"ARG_OF_PERICENTER":188.3777,"MEAN_ANOMALY":171.6663,"EPHEMERIS_TYPE":0,"CLASSIFICATION_TYPE":"U","NORAD_CAT_ID":40001,"ELEMENT_SET_NO":999,"REV_AT_EPOCH":9185,"BSTAR":0,"MEAN_MOTION_DOT":-4.4e-7,"MEAN_MOTION_DDOT":0},{"OBJECT_NAME":"COSMOS 2501 (702K)","OBJECT_ID":"2014-075A","EPOCH":"2026-03-25T07:16:41.300256","MEAN_MOTION":2.13101287,"ECCENTRICITY":0.00211828,"INCLINATION":63.6158,"RA_OF_ASC_NODE":193.2737,"ARG_OF_PERICENTER":207.3153,"MEAN_ANOMALY":152.5805,"EPHEMERIS_TYPE":0,"CLASSIFICATION_TYPE":"U","NORAD_CAT_ID":40315,"ELEMENT_SET_NO":999,"REV_AT_EPOCH":8806,"BSTAR":0,"MEAN_MOTION_DOT":1.0e-8,"MEAN_MOTION_DDOT":0},{"OBJECT_NAME":"COSMOS 2514 (751)","OBJECT_ID":"2016-008A","EPOCH":"2026-04-01T07:50:17.610144","MEAN_MOTION":2.13102702,"ECCENTRICITY":0.00090385,"INCLINATION":65.0661,"RA_OF_ASC_NODE":315.6458,"ARG_OF_PERICENTER":202.4041,"MEAN_ANOMALY":157.6117,"EPHEMERIS_TYPE":0,"CLASSIFICATION_TYPE":"U","NORAD_CAT_ID":41330,"ELEMENT_SET_NO":999,"REV_AT_EPOCH":7898,"BSTAR":0,"MEAN_MOTION_DOT":-3.7e-7,"MEAN_MOTION_DDOT":0},{"OBJECT_NAME":"COSMOS 2522 (752)","OBJECT_ID":"2017-055A","EPOCH":"2026-03-28T21:06:38.934720","MEAN_MOTION":2.13101664,"ECCENTRICITY":0.00080509,"INCLINATION":64.078,"RA_OF_ASC_NODE":194.6153,"ARG_OF_PERICENTER":231.2616,"MEAN_ANOMALY":128.6626,"EPHEMERIS_TYPE":0,"CLASSIFICATION_TYPE":"U","NORAD_CAT_ID":42939,"ELEMENT_SET_NO":999,"REV_AT_EPOCH":6626,"BSTAR":0,"MEAN_MOTION_DOT":-3.6e-7,"MEAN_MOTION_DDOT":0},{"OBJECT_NAME":"COSMOS 2527 (756)","OBJECT_ID":"2018-053A","EPOCH":"2026-04-04T09:51:11.976192","MEAN_MOTION":2.13102083,"ECCENTRICITY":0.00092159,"INCLINATION":65.5379,"RA_OF_ASC_NODE":76.3665,"ARG_OF_PERICENTER":247.9985,"MEAN_ANOMALY":111.8895,"EPHEMERIS_TYPE":0,"CLASSIFICATION_TYPE":"U","NORAD_CAT_ID":43508,"ELEMENT_SET_NO":999,"REV_AT_EPOCH":6070,"BSTAR":0,"MEAN_MOTION_DOT":-1.0e-8,"MEAN_MOTION_DDOT":0}]
